OBJECT_NAME,OBJECT_ID,EPOCH,MEAN_MOTION,ECCENTRICITY,INCLINATION,RA_OF_ASC_NODE,ARG_OF_PERICENTER,MEAN_ANOMALY,EPHEMERIS_TYPE,CLASSIFICATION_TYPE,NORAD_CAT_ID,ELEMENT_SET_NO,REV_AT_EPOCH,BSTAR,MEAN_MOTION_DOT,MEAN_MOTION_DDOT
GSAT0233 (GALILEO 33),2025-302A,2026-05-18T21:34:59.450880,1.70474069,.0001581,54.3182,102.9642,248.0002,293.8232,0,U,67160,999,262,0,.19E-6,0
GSAT0234 (GALILEO 34),2025-302C,2026-05-17T10:27:20.408832,1.70474094,.00036778,54.3177,103.0056,300.8975,242.7550,0,U,67162,999,265,0,.25E-6,0
